sat32407
1 32407U 99025CZT 20044.00547661  .00002452  00000-0  11499-3 0  9990
2 32407  98.4435 304.8550 0193149 125.3173 236.6283 15.05808216675458
